#dP2024  3 24 12  0  0.00000000      96 __u+U IGS20 EXT  IAC
## 2307  43200.00000000   900.00000000 60393 0.5000000000000
+  120   C06C07C08C09C10C11C12C13C14C16C19C20C21C22C23C24C25
+        C26C27C28C29C30C32C33C34C35C36C37C38C39C40C41C42C43
+        C44C45C46E02E03E04E05E07E08E09E10E11E12E13E14E15E18
+        E19E21E24E25E26E27E30E31E33E34E36G01G02G03G04G05G06
+        G07G08G09G10G11G12G13G14G15G16G17G18G19G20G21G22G23
+        G24G25G26G27G28G29G30G31G32J02J03J04R01R02R03R04R05
+        R07R08R09R11R12R13R14R15R16R17R18R19R20R21R22R24R25
+        R26  0  0  0  0  0  0  0  0  0  0  0  0  0  0  0  0
++         9  9 11 10  7 10  8 10  9 10  8  8  8  6  8  9  7
++        10  7  8  9  8  8  8  8  9  8  8  9  7 10  8  9  9
++         7 10 10  6  7  7  8  7  8  9  7  7  8  8  7  8  7
++         8  7  6  7  7  8  8  7  8  8  7  8  6  7  7  7  7
++         6  7  7  7 10  7  8  6  6  8  7  7  6  6  9  7  8
++         7  8  7  7  9  7  6 10  6 11 10  0  8  8  6  7  8
++         9  9  7  8  7  7  6  8  8  8  7 10 10  9  8  7  7
++         8  0  0  0  0  0  0  0  0  0  0  0  0  0  0  0  0
%c M  cc GPS ccc cccc cccc cccc cccc ccccc ccccc ccccc ccccc
%c cc cc ccc ccc cccc cccc cccc cccc ccccc ccccc ccccc ccccc
%f  0.0000000  0.000000000  0.00000000000  0.000000000000000
%f  0.0000000  0.000000000  0.00000000000  0.000000000000000
%i    0    0    0    0      0      0      0      0         0
%i    0    0    0    0      0      0      0      0         0
/* IAC                                ULTRA-RAPID PREDICTION
/* S/V CLOCKS ARE ALIGNED TO GNSS TIME                      
/* G:C1WC2W R:C1PC2P E:C1XC5X C:C2IC6I J:C1CC2S             
/* PCV:IGS20_2290 OL/AL:FES2004  NONE     YN ORB:CoN CLK:CoN
*  2024 03 24 18  0  0.00000000
PC06  -3257.485925  39059.856029  15993.822770    295.920231
PC07 -11172.256280  25810.509990 -31355.170989   -884.937525
PC08 -20378.405803  32915.031495  16449.060888     34.438510
PC09    -60.002907  41432.035279   9903.591026   -666.011359
PC10  -2212.683041  27378.446497 -31640.364483     31.144486
PC11  10552.098491 -12077.495279  22902.332669    476.588001
PC12  19233.567461   7611.741434  18769.196986   -219.408942
PC13 -12642.138436  33125.542733  22764.261235    426.995940
PC14  21177.455361 -10846.376151 -14512.053177    481.419807
PC16  -6336.037086  36720.868720  20339.209019   -415.869251
PC19 -12399.447978  14398.006756  20477.890897   -917.458503
PC20 -25987.564578   6494.477691   7909.876078   -289.718480
PC21  25000.089751   6184.779683  10727.290897   -961.566604
PC22   9105.959451  14515.065246  22021.654388    -63.213711
PC23   -398.128140 -23314.320550  15332.811035   -775.789487
PC24  19372.898217 -11388.263193 -16578.641823    950.455157
PC25  12587.404258 -24912.554975   -545.674322    357.574011
PC26  14428.534758   7617.692363 -22658.556840   -267.409543
PC27 -19768.646462 -15489.780424 -12173.691543    289.272675
PC28 -12728.974457 -24615.781683   3272.712059    220.796728
PC29  -3205.504556  19668.442014 -19544.939397    258.941986
PC30 -17064.406784   2397.288448 -21955.944848    -43.577575
PC32 -25050.513523  -5996.944924 -10742.059859   -588.818062
PC33  12365.264737 -14463.240664 -20395.282984   -961.818209
PC34  16311.201101  -3993.234311  22276.102523    397.208625
PC35  13515.150503  24195.427635  -3466.147050    403.456070
PC36 -13336.221687  24493.526026    854.979836     29.125158
PC37 -14027.388659  -8354.656837  22637.443831   -948.507068
PC38 -24148.242499  33419.195509   8548.777869    144.743603
PC39  -8222.842416  33121.835369  24976.909581     -7.698838
PC40 -15905.773502  19071.242838 -34124.280382    -62.267601
PC41  -8287.056562 -14676.703503 -22185.784877   -911.419811
PC42  26593.545553  -5529.786119  -6272.038341   -445.482784
PC43   4106.705448 -19085.840258  19917.533509     65.374290
PC44  20395.310066  14872.938326  11919.306612    423.045213
PC45    336.326598  23224.245143 -15458.747056    -77.181239
PC46 -19283.567725  12160.628944  16058.798757   -134.303356
PE02 -11619.041837 -12618.735252  24110.649601    113.852455
PE03 -20586.448523 -19442.838419  -8643.712963   -102.528309
PE04  26685.547452   7762.140713 -10171.600745   -357.300886
PE05  -2544.221234 -19545.900304 -22074.748527   4732.110549
PE07 -17442.015336   7926.611013  22577.203260   -110.729862
PE08 -26742.430645  -8382.063862   9553.369804   -244.048999
PE09  17440.780353  -7736.895956 -22618.787031   -382.199925
PE10  15526.531596  -7715.749457  23984.899077   -611.806838
PE11  12681.906251 -18771.201562  19030.525665   3133.804213
PE12  15906.581356   3352.339671  24736.026213   -963.111918
PE13 -12851.066120  18215.438719 -19478.552204    -20.680368
PE14 -22553.700282 -20167.214134   5511.273667     75.648591
PE15 -15783.253165  -3942.625577 -24721.956536    -93.091020
PE18  11474.287162  19808.211145 -11871.388369    472.416209
PE19  18969.561265  20108.095042  10595.393496   -371.964762
PE21  -8385.404833  20258.072441 -19892.350051   -585.635823
PE24  24593.007335 -16119.767544   3477.822951   -669.167363
PE25   8815.129462 -20304.295686  19652.276843      2.510059
PE26  -2097.683135  29438.553910  -2325.150438    405.841444
PE27 -24349.753008  16374.769957  -3852.912722   -306.921195
PE30 -25724.199075   2637.122493  14375.452181   -128.010173
PE31  25775.814023  -2885.882398 -14269.440339    -19.067947
PE33   9140.666786  23844.685521  14975.072365      9.470708
PE34  -9466.292761 -23441.329731 -15399.360813   -101.789558
PE36   2471.016050 -29338.899094   2958.399065   -203.752995
PG01  11036.070144 -17240.415316  16391.472168    175.753842
PG02  14309.022380  -7222.720903  21623.193177   -464.949115
PG03  23410.443513 -12267.124783   1700.830490    271.232612
PG04  19335.381990  -2754.271252 -18044.990974    322.640247
PG05 -22255.941364   2612.167161 -14500.841889   -166.594010
PG06  -5841.528375 -24121.518820  -9232.141770    353.616547
PG07   5817.122118 -24125.178861  -8273.044164    -91.720878
PG08  24045.268251   3919.670825  10973.110098     77.570469
PG09   7324.378517 -13452.077860 -21778.219177    135.921678
PG10    429.378926  16134.905371  21234.072436     -2.338488
PG11 -12047.668143 -14920.722321 -18372.625800   -616.500472
PG12 -24347.283715  10185.156406   2385.858757   -490.213422
PG13 -22551.039901 -13358.909476   4789.279787    636.938016
PG14   3860.599796 -17909.763430  19187.152181    358.837545
PG15 -24330.836807  -1225.743969  10324.318465    141.088232
PG16  20141.639564   3927.808002 -17441.371005   -333.486734
PG17  -5413.404531 -18676.672782  18442.140379    712.407347
PG18  -5692.312373  24607.261312  -7886.716298   -581.805913
PG19 -14388.640947 -19616.166762  10905.025512    458.520080
PG20 -14835.867584  -6848.208198 -20849.204076    382.732284
PG21  15424.150026   -466.642529  22094.335800    130.066843
PG22  -3874.950696 -15099.620701  21950.556042     10.960770
PG23 -12012.602242  18806.736843  14279.484733    184.593824
PG24 -15012.505887   4973.352826  20888.785313   -450.715403
PG25 -19080.492036  17140.364330  -6671.983192    492.132313
PG26  10904.803338  11749.582630 -21346.409959    175.561685
PG27  23330.026714  13183.032168    -63.107929    -14.108947
PG28   5490.861092  25162.287205  -6517.949575   -176.574468
PG29 -10288.869522  11075.370336 -21896.783649   -603.933797
PG30  -1400.390627 -26320.938691   1826.209975   -415.187747
PG31  10614.150657  18762.792220 -15458.853084   -228.011055
PG32   9773.614726  18660.249912  16507.008819   -616.762477
PJ02 -35873.894077  19202.666450  -6350.954588     -3.264566
PJ03 -20275.063461  26967.187906 -20669.382956     -0.160942
PJ04      0.000000      0.000000      0.000000     50.602623
PR01  16742.332523   9764.053715  16582.487044     80.562877
PR02  25213.422578   4037.379849    672.815137    -22.637605
PR03  19578.395490  -4727.192313 -15635.223206     96.965217
PR04   3386.418864 -10302.652059 -23052.409264    228.992340
PR05 -14559.205959 -10625.156028 -18022.196671    128.920571
PR07 -18821.440333   5186.109084  16436.326460     78.679750
PR08  -3001.586017  10537.753631  23099.672689    -74.844613
PR09 -14879.174349   3193.543693  20510.813741    177.155047
PR11 -11263.582562  21370.906964  -8209.918283     30.186624
PR12   3100.212794  13042.979905 -21678.001640     38.189243
PR13  13534.797598   -743.295439 -21626.948450    -45.608104
PR14  17454.390742 -16889.146382  -7757.287786     26.268514
PR15  10409.451043 -21192.423192   9660.924027     81.087448
PR16  -2869.776467 -13133.161496  21675.433827     24.274545
PR17   7558.508489  -8973.488949  22659.607171     71.864543
PR18  -1715.965138 -21475.973052  13623.607339    133.769018
PR19  -8813.223492 -23921.862129   -807.947669   -270.560721
PR20 -12836.959267 -10777.118540 -19203.128290   -110.283879
PR21  -7530.944679   8923.480799 -22677.955189    -87.153803
PR22   1609.798598  22163.580404 -12516.048942    114.369317
PR24  13613.091711   9552.153140  19353.136632    -49.063997
PR25  -8126.726389   8905.592518 -22473.271624    -24.768874
PR26  -4187.119082  10322.930914  22973.809899    -28.564160
EOF
